0 FENGYUN 1C DEB
1 30933U 99025AZX 13281.82195456  .00004166  00000-0  32901-2 0  8014
2 30933 099.0771 216.9028 0132105 026.7178 034.6929 13.88095067335689
0 FENGYUN 1C DEB
1 30933U 99025AZX 13283.04664646  .00004473  00000-0  35296-2 0  8024
2 30933 099.0771 218.0944 0132091 023.5060 034.5799 13.88109515335855
0 FENGYUN 1C DEB
1 30933U 99025AZX 13284.14164007  .00004767  00000-0  37586-2 0  8033
2 30933 099.0770 219.1596 0132112 020.5856 106.4502 13.88116207336019
0 FENGYUN 1C DEB
1 30933U 99025AZX 13285.49576028  .00003896  00000-0  30779-2 0  8042
2 30933 099.0769 220.4775 0132052 017.0200 033.2181 13.88127054336199
0 FENGYUN 1C DEB
1 30933U 99025AZX 13286.50667509  .00003731  00000-0  29490-2 0  8057
2 30933 099.0770 221.4613 0132054 014.3780 044.9434 13.88133877336334
0 FENGYUN 1C DEB
1 30933U 99025AZX 13287.51460574  .00004292  00000-0  33864-2 0  8066
2 30933 099.0771 222.4422 0132056 011.7431 041.7848 13.88141169336472
0 FENGYUN 1C DEB
1 30933U 99025AZX 13288.81219135  .00005275  00000-0  41530-2 0  8077
2 30933 099.0777 223.7048 0132049 008.3569 046.1356 13.88154641336654
0 FENGYUN 1C DEB
1 30933U 99025AZX 13290.27504277  .00005682  00000-0  44695-2 0  8082
2 30933 099.0782 225.1283 0132009 004.5381 156.4292 13.88168281336865
0 FENGYUN 1C DEB
1 30933U 99025AZX 13291.48033877  .00004946  00000-0  38951-2 0  8090
2 30933 099.0786 226.3011 0131944 001.3738 059.7194 13.88180449337024
0 FENGYUN 1C DEB
1 30933U 99025AZX 13292.49032821  .00004776  00000-0  37622-2 0  8107
2 30933 099.0786 227.2840 0131880 358.7198 067.0368 13.88190843337161
0 FENGYUN 1C DEB
1 30933U 99025AZX 13293.78521035  .00005480  00000-0  43104-2 0  8116
2 30933 099.0786 228.5443 0131784 355.3152 058.1318 13.88202823337348
0 FENGYUN 1C DEB
1 30933U 99025AZX 13294.78922714  .00006276  00000-0  49308-2 0  8123
2 30933 099.0784 229.5216 0131698 352.6833 035.6765 13.88212266337488
0 FENGYUN 1C DEB
1 30933U 99025AZX 13295.80328426  .00005930  00000-0  46612-2 0  8139
2 30933 099.0781 230.5087 0131625 350.0368 063.4169 13.88221361337627
